{
  "type": "FeatureCollection",
  "features": [
    {
      "type": "Feature",
      "properties": {
        "norad_id": 31383,
        "name": "FENGYUN 1C DEB",
        "group": "fengyun-1c-debris",
        "lat": -9.78175479184185,
        "lon": 42.40801542384221,
        "alt_km": 801.2981190016253,
        "timestamp": "2025-12-04T21:36:16.154957+00:00",
        "meta_object_name": "FENGYUN 1C DEB",
        "meta_object_id": "1999-025BSP",
        "meta_epoch": "2025-11-30T15:52:15.780864",
        "meta_mean_motion": 14.05658237,
        "meta_eccentricity": 0.01079896,
        "meta_inclination": 99.0689,
        "meta_ra_of_asc_node": 36.5888,
        "meta_arg_of_pericenter": 351.3472,
        "meta_mean_anomaly": 159.9983,
        "meta_ephemeris_type": 0,
        "meta_classification_type": "U",
        "meta_norad_cat_id": 31383,
        "meta_element_set_no": 999,
        "meta_rev_at_epoch": 95199,
        "meta_bstar": 0.0006307032,
        "meta_mean_motion_dot": 1.037e-05,
        "meta_mean_motion_ddot": 0,
        "tle_line1": "1 31383U 99025BSP 25334.66129376  .00001037  00000+0  63070-3 0  9999",
        "tle_line2": "2 31383  99.0689  36.5888 0107989 351.3472 159.9983 14.05658237951996"
      },
      "geometry": {
        "type": "Point",
        "coordinates": [
          42.40801542384221,
          -9.78175479184185
        ]
      }
    },
    {
      "type": "Feature",
      "properties": {
        "norad_id": 31384,
        "name": "FENGYUN 1C DEB",
        "group": "fengyun-1c-debris",
        "lat": -59.69836724151982,
        "lon": 110.95112121694166,
        "alt_km": 1272.1041131347665,
        "timestamp": "2025-12-04T21:36:16.154967+00:00",
        "meta_object_name": "FENGYUN 1C DEB",
        "meta_object_id": "1999-025BSQ",
        "meta_epoch": "2025-11-30T21:25:39.153792",
        "meta_mean_motion": 13.85935935,
        "meta_eccentricity": 0.04406256,
        "meta_inclination": 98.4563,
        "meta_ra_of_asc_node": 302.0658,
        "meta_arg_of_pericenter": 74.1899,
        "meta_mean_anomaly": 342.7882,
        "meta_ephemeris_type": 0,
        "meta_classification_type": "U",
        "meta_norad_cat_id": 31384,
        "meta_element_set_no": 999,
        "meta_rev_at_epoch": 92860,
        "meta_bstar": 0.0021210825,
        "meta_mean_motion_dot": 5.211e-05,
        "meta_mean_motion_ddot": 0,
        "tle_line1": "1 31384U 99025BSQ 25334.89281428  .00005211  00000+0  21211-2 0  9990",
        "tle_line2": "2 31384  98.4563 302.0658 0440625  74.1899 342.7882 13.85935935928609"
      },
      "geometry": {
        "type": "Point",
        "coordinates": [
          110.95112121694166,
          -59.69836724151982
        ]
      }
    },
    {
      "type": "Feature",
      "properties": {
        "norad_id": 31385,
        "name": "FENGYUN 1C DEB",
        "group": "fengyun-1c-debris",
        "lat": -21.438426509097788,
        "lon": -114.90752087487738,
        "alt_km": 801.8137340520452,
        "timestamp": "2025-12-04T21:36:16.154977+00:00",
        "meta_object_name": "FENGYUN 1C DEB",
        "meta_object_id": "1999-025BSR",
        "meta_epoch": "2025-12-04T12:27:07.031232",
        "meta_mean_motion": 14.43983375,
        "meta_eccentricity": 0.0134855,
        "meta_inclination": 98.9548,
        "meta_ra_of_asc_node": 68.241,
        "meta_arg_of_pericenter": 79.8946,
        "meta_mean_anomaly": 299.1199,
        "meta_ephemeris_type": 0,
        "meta_classification_type": "U",
        "meta_norad_cat_id": 31385,
        "meta_element_set_no": 999,
        "meta_rev_at_epoch": 98496,
        "meta_bstar": 0.0003149247,
        "meta_mean_motion_dot": 1.149e-05,
        "meta_mean_motion_ddot": 0,
        "tle_line1": "1 31385U 99025BSR 25338.51883138  .00001149  00000+0  31492-3 0  9999",
        "tle_line2": "2 31385  98.9548  68.2410 0134855  79.8946 299.1199 14.43983375984968"
      },
      "geometry": {
        "type": "Point",
        "coordinates": [
          -114.90752087487738,
          -21.438426509097788
        ]
      }
    },
    {
      "type": "Feature",
      "properties": {
        "norad_id": 31386,
        "name": "FENGYUN 1C DEB",
        "group": "fengyun-1c-debris",
        "lat": 81.54831670531703,
        "lon": -97.56330756854857,
        "alt_km": 1051.953066345115,
        "timestamp": "2025-12-04T21:36:16.154987+00:00",
        "meta_object_name": "FENGYUN 1C DEB",
        "meta_object_id": "1999-025BSS",
        "meta_epoch": "2025-11-30T23:36:27.682272",
        "meta_mean_motion": 13.85933209,
        "meta_eccentricity": 0.01976819,
        "meta_inclination": 98.4408,
        "meta_ra_of_asc_node": 351.0324,
        "meta_arg_of_pericenter": 316.7324,
        "meta_mean_anomaly": 41.8452,
        "meta_ephemeris_type": 0,
        "meta_classification_type": "U",
        "meta_norad_cat_id": 31386,
        "meta_element_set_no": 999,
        "meta_rev_at_epoch": 93699,
        "meta_bstar": 0.0021212341,
        "meta_mean_motion_dot": 2.802e-05,
        "meta_mean_motion_ddot": 0,
        "tle_line1": "1 31386U 99025BSS 25334.98365373  .00002802  00000+0  21212-2 0  9998",
        "tle_line2": "2 31386  98.4408 351.0324 0197681 316.7324  41.8452 13.85933209936995"
      },
      "geometry": {
        "type": "Point",
        "coordinates": [
          -97.56330756854857,
          81.54831670531703
        ]
      }
    },
    {
      "type": "Feature",
      "properties": {
        "norad_id": 31387,
        "name": "FENGYUN 1C DEB",
        "group": "fengyun-1c-debris",
        "lat": 29.13980156040977,
        "lon": -148.00985939423137,
        "alt_km": 1012.8072329527922,
        "timestamp": "2025-12-04T21:36:16.154997+00:00",
        "meta_object_name": "FENGYUN 1C DEB",
        "meta_object_id": "1999-025BST",
        "meta_epoch": "2025-12-03T09:46:58.419840",
        "meta_mean_motion": 14.13553434,
        "meta_eccentricity": 0.02413381,
        "meta_inclination": 99.1685,
        "meta_ra_of_asc_node": 215.625,
        "meta_arg_of_pericenter": 197.5416,
        "meta_mean_anomaly": 161.7313,
        "meta_ephemeris_type": 0,
        "meta_classification_type": "U",
        "meta_norad_cat_id": 31387,
        "meta_element_set_no": 999,
        "meta_rev_at_epoch": 96165,
        "meta_bstar": 0.00033502767,
        "meta_mean_motion_dot": 7.83e-06,
        "meta_mean_motion_ddot": 0,
        "tle_line1": "1 31387U 99025BST 25337.40762060  .00000783  00000+0  33503-3 0  9996",
        "tle_line2": "2 31387  99.1685 215.6250 0241338 197.5416 161.7313 14.13553434961659"
      },
      "geometry": {
        "type": "Point",
        "coordinates": [
          -148.00985939423137,
          29.13980156040977
        ]
      }
    },
    {
      "type": "Feature",
      "properties": {
        "norad_id": 31388,
        "name": "FENGYUN 1C DEB",
        "group": "fengyun-1c-debris",
        "lat": 62.61207489528499,
        "lon": -50.34184655954306,
        "alt_km": 893.365598056851,
        "timestamp": "2025-12-04T21:36:16.155007+00:00",
        "meta_object_name": "FENGYUN 1C DEB",
        "meta_object_id": "1999-025BSU",
        "meta_epoch": "2025-12-03T06:07:53.129856",
        "meta_mean_motion": 14.07419415,
        "meta_eccentricity": 0.0046166,
        "meta_inclination": 98.8042,
        "meta_ra_of_asc_node": 325.4619,
        "meta_arg_of_pericenter": 228.0098,
        "meta_mean_anomaly": 147.5361,
        "meta_ephemeris_type": 0,
        "meta_classification_type": "U",
        "meta_norad_cat_id": 31388,
        "meta_element_set_no": 999,
        "meta_rev_at_epoch": 96308,
        "meta_bstar": 0.00030121,
        "meta_mean_motion_dot": 4.68e-06,
        "meta_mean_motion_ddot": 0,
        "tle_line1": "1 31388U 99025BSU 25337.25547604  .00000468  00000+0  30121-3 0  9998",
        "tle_line2": "2 31388  98.8042 325.4619 0046166 228.0098 147.5361 14.07419415963087"
      },
      "geometry": {
        "type": "Point",
        "coordinates": [
          -50.34184655954306,
          62.61207489528499
        ]
      }
    },
    {
      "type": "Feature",
      "properties": {
        "norad_id": 31389,
        "name": "FENGYUN 1C DEB",
        "group": "fengyun-1c-debris",
        "lat": -68.96712284301339,
        "lon": 168.04212901585467,
        "alt_km": 694.4323290973261,
        "timestamp": "2025-12-04T21:36:16.155017+00:00",
        "meta_object_name": "FENGYUN 1C DEB",
        "meta_object_id": "1999-025BSV",
        "meta_epoch": "2025-12-03T09:53:27.656160",
        "meta_mean_motion": 14.60249637,
        "meta_eccentricity": 0.00305164,
        "meta_inclination": 99.0426,
        "meta_ra_of_asc_node": 141.9537,
        "meta_arg_of_pericenter": 216.4518,
        "meta_mean_anomaly": 173.9957,
        "meta_ephemeris_type": 0,
        "meta_classification_type": "U",
        "meta_norad_cat_id": 31389,
        "meta_element_set_no": 999,
        "meta_rev_at_epoch": 96361,
        "meta_bstar": 0.006818357,
        "meta_mean_motion_dot": 0.00033216,
        "meta_mean_motion_ddot": 0,
        "tle_line1": "1 31389U 99025BSV 25337.41212565  .00033216  00000+0  68184-2 0  9998",
        "tle_line2": "2 31389  99.0426 141.9537 0030516 216.4518 173.9957 14.60249637963616"
      },
      "geometry": {
        "type": "Point",
        "coordinates": [
          168.04212901585467,
          -68.96712284301339
        ]
      }
    }
  ]
}